QIANFAN-1               
1 60379U 24140A   26064.12571948  .00000093  00000+0  12549-3 0  9996
2 60379  88.9717 290.7595 0017142 342.9503  17.1070 13.50999400 78477
QIANFAN-2               
1 60380U 24140B   26064.15444670  .00000101  00000+0  13755-3 0  9992
2 60380  88.9703 290.5844 0011637 315.8948  44.1274 13.51003567 78538
QIANFAN-3               
1 60381U 24140C   26064.08854271  .00000110  00000+0  15232-3 0  9999
2 60381  88.9696 290.7177 0013131 328.9665  31.0709 13.50999527 78439
QIANFAN-4               
1 60382U 24140D   26064.13802348  .00000113  00000+0  15621-3 0  9999
2 60382  88.9721 290.6310 0011949 318.6977  41.3269 13.50999883 78568
QIANFAN-5               
1 60383U 24140E   26064.11336134  .00000104  00000+0  14280-3 0  9993
2 60383  88.9696 290.7404 0014723 339.9378  20.1193 13.51001854 78428
QIANFAN-6               
1 60384U 24140F   26064.13393832  .00000105  00000+0  14416-3 0  9996
2 60384  88.9722 290.5066 0012213 324.9843  35.0504 13.51001630 78629
QIANFAN-7               
1 60385U 24140G   26064.09647173  .00000371  00000+0  14429-3 0  9991
2 60385  88.9734 284.0506 0016564 124.7000 235.5757 14.27771849 82143
QIANFAN-8               
1 60386U 24140H   26064.14215726  .00000106  00000+0  14584-3 0  9991
2 60386  88.9724 290.7445 0015719 325.7344  34.2791 13.51003158 78474
QIANFAN-9               
1 60387U 24140J   26064.11746194  .00000101  00000+0  13781-3 0  9990
2 60387  88.9722 290.8208 0015416 325.6287  34.3866 13.50997941 78453
QIANFAN-10              
1 60388U 24140K   26064.12145858  .00000099  00000+0  13439-3 0  9998
2 60388  88.9731 290.1754 0013294 301.7800  58.2055 13.50996336 78587
QIANFAN-11              
1 60389U 24140L   26064.15863586  .00000105  00000+0  14370-3 0  9990
2 60389  88.9657 290.6974 0013433 326.0796  33.9494 13.51003193 78244
QIANFAN-12              
1 60390U 24140M   26064.10514876  .00000115  00000+0  15944-3 0  9991
2 60390  88.9701 290.7823 0012513 335.4695  24.5859 13.51000891 78366
QIANFAN-13              
1 60391U 24140N   26064.15038310  .00000103  00000+0  14078-3 0  9995
2 60391  88.9713 290.8876 0012419 338.2255  21.8367 13.51001320 78392
QIANFAN-14              
1 60392U 24140P   26064.10093910  .00000111  00000+0  15402-3 0  9999
2 60392  88.9692 290.7728 0016081 336.4540  23.5874 13.51001131 78392
QIANFAN-15              
1 60393U 24140Q   26064.10931284  .00000096  00000+0  12942-3 0  9993
2 60393  88.9715 290.7480 0011482 324.1065  35.9314 13.50998985 78386
QIANFAN-16              
1 60394U 24140R   26064.09680876  .00000119  00000+0  16552-3 0  9997
2 60394  88.9719 290.8719 0014148 341.4284  18.6349 13.50997633 78299
QIANFAN-17              
1 60395U 24140S   26064.09280467  .00000104  00000+0  14197-3 0  9997
2 60395  88.9730 290.9273 0014341 334.7198  25.3249 13.51004328 79255
