[{"OBJECT_NAME":"QIANFAN-1","OBJECT_ID":"2024-140A","EPOCH":"2026-03-05T03:01:02.163072","MEAN_MOTION":13.509994,"ECCENTRICITY":0.0017142,"INCLINATION":88.9717,"RA_OF_ASC_NODE":290.7595,"ARG_OF_PERICENTER":342.9503,"MEAN_ANOMALY":17.107,"EPHEMERIS_TYPE":0,"CLASSIFICATION_TYPE":"U","NORAD_CAT_ID":60379,"ELEMENT_SET_NO":999,"REV_AT_EPOCH":7847,"BSTAR":0.00012549,"MEAN_MOTION_DOT":9.3e-7,"MEAN_MOTION_DDOT":0},{"OBJECT_NAME":"QIANFAN-2","OBJECT_ID":"2024-140B","EPOCH":"2026-03-05T03:42:24.194880","MEAN_MOTION":13.51003567,"ECCENTRICITY":0.0011637,"INCLINATION":88.9703,"RA_OF_ASC_NODE":290.5844,"ARG_OF_PERICENTER":315.8948,"MEAN_ANOMALY":44.1274,"EPHEMERIS_TYPE":0,"CLASSIFICATION_TYPE":"U","NORAD_CAT_ID":60380,"ELEMENT_SET_NO":999,"REV_AT_EPOCH":7853,"BSTAR":0.00013755,"MEAN_MOTION_DOT":1.01e-6,"MEAN_MOTION_DDOT":0},{"OBJECT_NAME":"QIANFAN-3","OBJECT_ID":"2024-140C","EPOCH":"2026-03-05T02:07:30.090144","MEAN_MOTION":13.50999527,"ECCENTRICITY":0.0013131,"INCLINATION":88.9696,"RA_OF_ASC_NODE":290.7177,"ARG_OF_PERICENTER":328.9665,"MEAN_ANOMALY":31.0709,"EPHEMERIS_TYPE":0,"CLASSIFICATION_TYPE":"U","NORAD_CAT_ID":60381,"ELEMENT_SET_NO":999,"REV_AT_EPOCH":7843,"BSTAR":0.00015232,"MEAN_MOTION_DOT":1.1e-6,"MEAN_MOTION_DDOT":0},{"OBJECT_NAME":"QIANFAN-4","OBJECT_ID":"2024-140D","EPOCH":"2026-03-05T03:18:45.228672","MEAN_MOTION":13.50999883,"ECCENTRICITY":0.0011949,"INCLINATION":88.9721,"RA_OF_ASC_NODE":290.631,"ARG_OF_PERICENTER":318.6977,"MEAN_ANOMALY":41.3269,"EPHEMERIS_TYPE":0,"CLASSIFICATION_TYPE":"U","NORAD_CAT_ID":60382,"ELEMENT_SET_NO":999,"REV_AT_EPOCH":7856,"BSTAR":0.00015621,"MEAN_MOTION_DOT":1.13e-6,"MEAN_MOTION_DDOT":0},{"OBJECT_NAME":"QIANFAN-5","OBJECT_ID":"2024-140E","EPOCH":"2026-03-05T02:43:14.419776","MEAN_MOTION":13.51001854,"ECCENTRICITY":0.0014723,"INCLINATION":88.9696,"RA_OF_ASC_NODE":290.7404,"ARG_OF_PERICENTER":339.9378,"MEAN_ANOMALY":20.1193,"EPHEMERIS_TYPE":0,"CLASSIFICATION_TYPE":"U","NORAD_CAT_ID":60383,"ELEMENT_SET_NO":999,"REV_AT_EPOCH":7842,"BSTAR":0.0001428,"MEAN_MOTION_DOT":1.04e-6,"MEAN_MOTION_DDOT":0},{"OBJECT_NAME":"QIANFAN-6","OBJECT_ID":"2024-140F","EPOCH":"2026-03-05T03:12:52.270848","MEAN_MOTION":13.5100163,"ECCENTRICITY":0.0012213,"INCLINATION":88.9722,"RA_OF_ASC_NODE":290.5066,"ARG_OF_PERICENTER":324.9843,"MEAN_ANOMALY":35.0504,"EPHEMERIS_TYPE":0,"CLASSIFICATION_TYPE":"U","NORAD_CAT_ID":60384,"ELEMENT_SET_NO":999,"REV_AT_EPOCH":7862,"BSTAR":0.00014416,"MEAN_MOTION_DOT":1.05e-6,"MEAN_MOTION_DDOT":0},{"OBJECT_NAME":"QIANFAN-7","OBJECT_ID":"2024-140G","EPOCH":"2026-03-05T02:18:55.157472","MEAN_MOTION":14.27771849,"ECCENTRICITY":0.0016564,"INCLINATION":88.9734,"RA_OF_ASC_NODE":284.0506,"ARG_OF_PERICENTER":124.7,"MEAN_ANOMALY":235.5757,"EPHEMERIS_TYPE":0,"CLASSIFICATION_TYPE":"U","NORAD_CAT_ID":60385,"ELEMENT_SET_NO":999,"REV_AT_EPOCH":8214,"BSTAR":0.00014429,"MEAN_MOTION_DOT":3.71e-6,"MEAN_MOTION_DDOT":0},{"OBJECT_NAME":"QIANFAN-8","OBJECT_ID":"2024-140H","EPOCH":"2026-03-05T03:24:42.387264","MEAN_MOTION":13.51003158,"ECCENTRICITY":0.0015719,"INCLINATION":88.9724,"RA_OF_ASC_NODE":290.7445,"ARG_OF_PERICENTER":325.7344,"MEAN_ANOMALY":34.2791,"EPHEMERIS_TYPE":0,"CLASSIFICATION_TYPE":"U","NORAD_CAT_ID":60386,"ELEMENT_SET_NO":999,"REV_AT_EPOCH":7847,"BSTAR":0.00014584,"MEAN_MOTION_DOT":1.06e-6,"MEAN_MOTION_DDOT":0},{"OBJECT_NAME":"QIANFAN-9","OBJECT_ID":"2024-140J","EPOCH":"2026-03-05T02:49:08.711616","MEAN_MOTION":13.50997941,"ECCENTRICITY":0.0015416,"INCLINATION":88.9722,"RA_OF_ASC_NODE":290.8208,"ARG_OF_PERICENTER":325.6287,"MEAN_ANOMALY":34.3866,"EPHEMERIS_TYPE":0,"CLASSIFICATION_TYPE":"U","NORAD_CAT_ID":60387,"ELEMENT_SET_NO":999,"REV_AT_EPOCH":7845,"BSTAR":0.00013781,"MEAN_MOTION_DOT":1.01e-6,"MEAN_MOTION_DDOT":0},{"OBJECT_NAME":"QIANFAN-10","OBJECT_ID":"2024-140K","EPOCH":"2026-03-05T02:54:54.021312","MEAN_MOTION":13.50996336,"ECCENTRICITY":0.0013294,"INCLINATION":88.9731,"RA_OF_ASC_NODE":290.1754,"ARG_OF_PERICENTER":301.78,"MEAN_ANOMALY":58.2055,"EPHEMERIS_TYPE":0,"CLASSIFICATION_TYPE":"U","NORAD_CAT_ID":60388,"ELEMENT_SET_NO":999,"REV_AT_EPOCH":7858,"BSTAR":0.00013439,"MEAN_MOTION_DOT":9.9e-7,"MEAN_MOTION_DDOT":0},{"OBJECT_NAME":"QIANFAN-11","OBJECT_ID":"2024-140L","EPOCH":"2026-03-05T03:48:26.138304","MEAN_MOTION":13.51003193,"ECCENTRICITY":0.0013433,"INCLINATION":88.9657,"RA_OF_ASC_NODE":290.6974,"ARG_OF_PERICENTER":326.0796,"MEAN_ANOMALY":33.9494,"EPHEMERIS_TYPE":0,"CLASSIFICATION_TYPE":"U","NORAD_CAT_ID":60389,"ELEMENT_SET_NO":999,"REV_AT_EPOCH":7824,"BSTAR":0.0001437,"MEAN_MOTION_DOT":1.05e-6,"MEAN_MOTION_DDOT":0},{"OBJECT_NAME":"QIANFAN-12","OBJECT_ID":"2024-140M","EPOCH":"2026-03-05T02:31:24.852864","MEAN_MOTION":13.51000891,"ECCENTRICITY":0.0012513,"INCLINATION":88.9701,"RA_OF_ASC_NODE":290.7823,"ARG_OF_PERICENTER":335.4695,"MEAN_ANOMALY":24.5859,"EPHEMERIS_TYPE":0,"CLASSIFICATION_TYPE":"U","NORAD_CAT_ID":60390,"ELEMENT_SET_NO":999,"REV_AT_EPOCH":7836,"BSTAR":0.00015944,"MEAN_MOTION_DOT":1.15e-6,"MEAN_MOTION_DDOT":0},{"OBJECT_NAME":"QIANFAN-13","OBJECT_ID":"2024-140N","EPOCH":"2026-03-05T03:36:33.099840","MEAN_MOTION":13.5100132,"ECCENTRICITY":0.0012419,"INCLINATION":88.9713,"RA_OF_ASC_NODE":290.8876,"ARG_OF_PERICENTER":338.2255,"MEAN_ANOMALY":21.8367,"EPHEMERIS_TYPE":0,"CLASSIFICATION_TYPE":"U","NORAD_CAT_ID":60391,"ELEMENT_SET_NO":999,"REV_AT_EPOCH":7839,"BSTAR":0.00014078,"MEAN_MOTION_DOT":1.03e-6,"MEAN_MOTION_DDOT":0},{"OBJECT_NAME":"QIANFAN-14","OBJECT_ID":"2024-140P","EPOCH":"2026-03-05T02:25:21.138240","MEAN_MOTION":13.51001131,"ECCENTRICITY":0.0016081,"INCLINATION":88.9692,"RA_OF_ASC_NODE":290.7728,"ARG_OF_PERICENTER":336.454,"MEAN_ANOMALY":23.5874,"EPHEMERIS_TYPE":0,"CLASSIFICATION_TYPE":"U","NORAD_CAT_ID":60392,"ELEMENT_SET_NO":999,"REV_AT_EPOCH":7839,"BSTAR":0.00015402,"MEAN_MOTION_DOT":1.11e-6,"MEAN_MOTION_DDOT":0},{"OBJECT_NAME":"QIANFAN-15","OBJECT_ID":"2024-140Q","EPOCH":"2026-03-05T02:37:24.629376","MEAN_MOTION":13.50998985,"ECCENTRICITY":0.0011482,"INCLINATION":88.9715,"RA_OF_ASC_NODE":290.748,"ARG_OF_PERICENTER":324.1065,"MEAN_ANOMALY":35.9314,"EPHEMERIS_TYPE":0,"CLASSIFICATION_TYPE":"U","NORAD_CAT_ID":60393,"ELEMENT_SET_NO":999,"REV_AT_EPOCH":7838,"BSTAR":0.00012942,"MEAN_MOTION_DOT":9.6e-7,"MEAN_MOTION_DDOT":0},{"OBJECT_NAME":"QIANFAN-16","OBJECT_ID":"2024-140R","EPOCH":"2026-03-05T02:19:24.276864","MEAN_MOTION":13.50997633,"ECCENTRICITY":0.0014148,"INCLINATION":88.9719,"RA_OF_ASC_NODE":290.8719,"ARG_OF_PERICENTER":341.4284,"MEAN_ANOMALY":18.6349,"EPHEMERIS_TYPE":0,"CLASSIFICATION_TYPE":"U","NORAD_CAT_ID":60394,"ELEMENT_SET_NO":999,"REV_AT_EPOCH":7829,"BSTAR":0.00016552,"MEAN_MOTION_DOT":1.19e-6,"MEAN_MOTION_DDOT":0},{"OBJECT_NAME":"QIANFAN-17","OBJECT_ID":"2024-140S","EPOCH":"2026-03-05T02:13:38.323488","MEAN_MOTION":13.51004328,"ECCENTRICITY":0.0014341,"INCLINATION":88.973,"RA_OF_ASC_NODE":290.9273,"ARG_OF_PERICENTER":334.7198,"MEAN_ANOMALY":25.3249,"EPHEMERIS_TYPE":0,"CLASSIFICATION_TYPE":"U","NORAD_CAT_ID":60395,"ELEMENT_SET_NO":999,"REV_AT_EPOCH":7925,"BSTAR":0.00014197,"MEAN_MOTION_DOT":1.04e-6,"MEAN_MOTION_DDOT":0}]
